AMC-3                   
1 24936U 97050A   25107.37685918 -.00000250  00000+0  00000+0 0  9993
2 24936   7.1011  68.8649 0003307 316.5873 243.9709  1.00272026101177
ASTRA 2A                
1 25462U 98050A   25108.04512735  .00000078  00000+0  00000+0 0  9997
2 25462   6.0200  73.8926 0003374 310.9047 255.0629  1.00271858 97473
NSS-11                  
1 26554U 00059A   25107.64046707  .00000034  00000+0  00000+0 0  9990
2 26554   1.0237  86.3920 0003027 300.4251 225.7581  1.00268241 37028
AMC-6                   
1 26580U 00067A   25107.64998309  .00000098  00000+0  00000+0 0  9992
2 26580   0.0977  77.7619 0003020 303.8440 283.3443  1.00271743 89627
AMC-11                  
1 28252U 04017A   25107.65467464 -.00000039  00000+0  00000+0 0  9999
2 28252   0.0560  61.6851 0003264 335.5761 293.3428  1.00269966 76603
AMC-15                  
1 28446U 04041A   25107.51312890 -.00000079  00000+0  00000+0 0  9992
2 28446   0.0580  62.8712 0002431 321.8265 260.8592  1.00272293 75079
NSS-10                  
1 28526U 05003A   25107.31228925 -.00000239  00000+0  00000+0 0  9991
2 28526   5.3826  75.5800 0003258 310.8012 254.2829  1.00277193 74044
ASTRA 1KR               
1 29055U 06012A   25107.84199601  .00000130  00000+0  00000+0 0  9995
2 29055   0.0227 316.8273 0000866  12.1180 199.6253  1.00277298 41452
ASTRA 1L                
1 31306U 07016A   25107.93933553  .00000130  00000+0  00000+0 0  9994
2 31306   0.2239  76.4770 0003433 315.9270 171.4745  1.00273005 40722
ASTRA 4A                
1 32299U 07057A   25107.89350211  .00000042  00000+0  00000+0 0  9992
2 32299   0.0119 291.8778 0002824  96.5911 144.2541  1.00272341 47380
AMC-21                  
1 33275U 08038B   25107.65198134  .00000047  00000+0  00000+0 0  9990
2 33275   1.8463  85.7191 0002987 307.3766 282.7457  1.00271141 61226
ASTRA 1M                
1 33436U 08057A   25107.84199635  .00000129  00000+0  00000+0 0  9999
2 33436   0.0643  70.6038 0002740   5.4308  92.4666  1.00271418 41474
NSS-9                   
1 33749U 09008A   25107.64172946  .00000082  00000+0  00000+0 0  9995
2 33749   0.1607  80.0042 0002468 314.5808 225.5249  1.00273017 59256
SES-7 (PROTOSTAR 2)     
1 34941U 09027A   25107.81817683 -.00000336  00000+0  00000+0 0  9997
2 34941   0.0780  75.7256 0000886 228.6638 304.5866  1.00269691 58365
NSS-12                  
1 36032U 09058A   25108.18799433  .00000080  00000+0  00000+0 0  9992
2 36032   0.0644  67.3788 0003821 316.0831 307.7672  1.00271857 56649
SES-1                   
1 36516U 10016A   25107.65675977 -.00000104  00000+0  00000+0 0  9990
2 36516   0.0296 289.9614 0002853 105.2743 306.2358  1.00271149 54763
ASTRA 3B                
1 36581U 10021A   25108.18130454  .00000146  00000+0  00000+0 0  9998
2 36581   0.3689  89.5542 0003625 308.9819 256.7694  1.00273206 54399
SES-3                   
1 37748U 11035A   25107.65632536 -.00000092  00000+0  00000+0 0  9990
2 37748   0.2233  85.6531 0003063 304.4387 309.2184  1.00272046 50329
ASTRA 1N                
1 37775U 11041A   25107.84199605  .00000129  00000+0  00000+0 0  9993
2 37775   0.0798  48.5226 0006045 348.9174 131.1015  1.00271611 40266
SES-2                   
1 37809U 11049A   25108.08799501 -.00000187  00000+0  00000+0 0  9992
2 37809   0.0408  62.0005 0002963 337.0227 112.1144  1.00272679 49739
QUETZSAT 1              
1 37826U 11054A   25107.56016880 -.00000231  00000+0  00000+0 0  9991
2 37826   0.0073  77.5030 0002733 317.2392 295.8582  1.00271196 45603
SES-4                   
1 38087U 12007A   25107.67239823 -.00000158  00000+0  00000+0 0  9994
2 38087   0.0148  80.5111 0002440 317.2692  28.3246  1.00271907 47954
SES-5                   
1 38652U 12036A   25107.89350211  .00000043  00000+0  00000+0 0  9995
2 38652   0.0445 312.4819 0002129  77.7107 142.7064  1.00271826 40218
ASTRA 2F                
1 38778U 12051A   25107.93933553  .00000159  00000+0  00000+0 0  9990
2 38778   0.0590 254.1961 0000277 348.9043 329.5710  1.00274147 36871
SES-6                   
1 39172U 13026A   25107.66866237 -.00000251  00000+0  00000+0 0  9990
2 39172   0.0314   6.8061 0002806  23.9617  15.4996  1.00271218 43459
O3B FM5                 
1 39188U 13031A   25107.51105855 -.00000018  00000+0  00000+0 0  9990
2 39188   0.0473 342.1228 0002773  49.7742 328.1212  5.00115374215732
O3B FM2                 
1 39190U 13031C   25107.65821856 -.00000018  00000+0  00000+0 0  9994
2 39190   0.0529  20.2111 0002723   9.7591 330.0468  5.00115729215824
O3B PFM                 
1 39191U 13031D   25107.48383904 -.00000018  00000+0  00000+0 0  9993
2 39191   0.0485 353.0789 0002690  34.2061 332.7305  5.00115241215370
ASTRA 2E                
1 39285U 13056A   25108.18226022  .00000159  00000+0  00000+0 0  9994
2 39285   0.0782 315.8642 0002604  69.0845 275.7159  1.00274695 42320
SES-8                   
1 39460U 13071A   25107.97316863 -.00000260  00000+0  00000+0 0  9999
2 39460   0.0205 262.4743 0002808 157.8092 231.3995  1.00269999 40167
ASTRA 5B                
1 39617U 14011B   25108.18130454  .00000146  00000+0  00000+0 0  9994
2 39617   0.0733 305.9681 0003071  61.2235 288.1160  1.00272271 40601
O3B FM3                 
1 40079U 14038A   25107.73868005 -.00000018  00000+0  00000+0 0  9996
2 40079   0.0495   5.1522 0004407  15.2710 339.5958  5.00115171196869
O3B FM7                 
1 40080U 14038B   25107.68479356 -.00000018  00000+0  00000+0 0  9999
2 40080   0.0461  11.3820 0002657  57.4846 291.1632  5.00115411196596
O3B FM6                 
1 40081U 14038C   25107.51198843 -.00000018  00000+0  00000+0 0  9991
2 40081   0.0492   7.2584 0002784  20.4002 332.3577  5.00115607196523
O3B FM8                 
1 40082U 14038D   25107.56543199 -.00000018  00000+0  00000+0 0  9995
2 40082   0.0485   8.1635 0002629  17.0345 334.8162  5.00115738196659
O3B FM10                
1 40348U 14083A   25107.79186230 -.00000018  00000+0  00000+0 0  9994
2 40348   0.0506  14.0063 0001350  70.9366 275.0739  5.00114800188612
O3B FM11                
1 40349U 14083B   25107.40518228 -.00000018  00000+0  00000+0 0  9999
2 40349   0.0473 356.7505 0002910  44.2434 319.0293  5.00115673188619
O3B FM12                
1 40350U 14083C   25107.23254081 -.00000018  00000+0  00000+0 0  9996
2 40350   0.0478 357.8649 0002908  32.5570 329.5964  5.00115808188616
O3B FM9                 
1 40351U 14083D   25107.65907120 -.00000018  00000+0  00000+0 0  9992
2 40351   0.0462 356.2626 0002678  32.1187 331.6347  5.00115582188788
ASTRA 2G                
1 40364U 14089A   25107.93933553  .00000159  00000+0  00000+0 0  9997
2 40364   0.0550  38.3707 0004930   5.3285 168.9605  1.00273736 37707
SES-9                   
1 41380U 16013A   25107.34122042 -.00000336  00000+0  00000+0 0  9991
2 41380   0.0132 289.9397 0002277 129.7465  17.1757  1.00272494 33163
SES-10                  
1 42432U 17017A   25107.55461387 -.00000263  00000+0  00000+0 0  9995
2 42432   0.0169 281.9987 0002970 118.3717 298.3189  1.00271073 29454
SES-15                  
1 42709U 17026A   25107.07996050  .00000069  00000+0  00000+0 0  9992
2 42709   0.0292  29.6640 0000761 324.3671 111.0606  1.00278999  3175
SES-11 (ECHOSTAR 105)   
1 42967U 17063A   25107.92266889 -.00000080  00000+0  00000+0 0  9997
2 42967   0.0189 299.6115 0002271 104.8802  29.0338  1.00272212 27546
SES-14                  
1 43175U 18012B   25107.38172448 -.00000269  00000+0  00000+0 0  9990
2 43175   0.0282  24.1525 0000993  15.0290 256.5042  1.00272004 26762
O3B FM15                
1 43231U 18024A   25106.32642128 -.00000019  00000+0  00000+0 0  9999
2 43231   0.0556 357.3319 0003045  29.2901 333.3949  5.00115439129674
O3B FM16                
1 43232U 18024B   25107.17852609 -.00000018  00000+0  00000+0 0  9990
2 43232   0.0594 356.4677 0003035  32.6683 330.8823  5.00115730129888
O3B FM14                
1 43233U 18024C   25107.61886577 -.00000018  00000+0  00000+0 0  9991
2 43233   0.0605 357.3550 0002772  29.9851 332.6759  5.00115357129664
O3B FM13                
1 43234U 18024D   25106.47282756 -.00000019  00000+0  00000+0 0  9995
2 43234   0.0246 350.8325 0002392  68.7759 300.4166  5.00115265129719
SES-12                  
1 43488U 18049A   25108.10962543 -.00000260  00000+0  00000+0 0  9992
2 43488   0.0076  64.7949 0001292 250.4332  25.7188  1.00271352 25148
O3B FM20                
1 44112U 19020A   25107.64487785 -.00000018  00000+0  00000+0 0  9996
2 44112   0.0520 358.1894 0003311  34.6130 327.2195  5.00115289110275
O3B FM19                
1 44113U 19020B   25107.47228122 -.00000018  00000+0  00000+0 0  9996
2 44113   0.0365 346.3284 0003410  47.9132 325.7818  5.00115154110359
O3B FM17                
1 44114U 19020C   25107.55209448 -.00000018  00000+0  00000+0 0  9996
2 44114   0.0669  10.6099 0003122  17.3482 332.0601  5.00115123110235
O3B FM18                
1 44115U 19020D   25107.49829919 -.00000018  00000+0  00000+0 0  9991
2 44115   0.0518 357.8291 0002912  28.8592 333.3282  5.00115175110353
SES-17                  
1 49332U 21095A   25107.61853397 -.00000262  00000+0  00000+0 0  9994
2 49332   0.0066 292.8772 0001147 106.1950 322.4976  1.00269121 13578
SES-22                  
1 52933U 22071A   25107.64920117  .00000114  00000+0  00000+0 0  9993
2 52933   0.0168 256.3660 0001191 132.1410 272.2330  1.00270082  3250
SES-20                  
1 53960U 22123A   25106.65662741 -.00000090  00000+0  00000+0 0  9992
2 53960   0.0344  99.6440 0001968 332.8985 265.7897  1.00271395  9258
SES-21                  
1 53961U 22123B   25107.41141713  .00000079  00000+0  00000+0 0  9995
2 53961   0.0070 344.1577 0000610  34.7571 203.9685  1.00269284  9271
O3B MPOWER F1           
1 54755U 22174A   25107.40770171 -.00000018  00000+0  00000+0 0  9992
2 54755   0.0406  10.3126 0004782   1.5772  46.1620  5.00116669 44050
O3B MPOWER F2           
1 54756U 22174B   25108.10868141 -.00000018  00000+0  00000+0 0  9996
2 54756   0.0431  14.9313 0005783  10.5201 334.5785  5.00116422 44161
SES-18                  
1 55970U 23038A   25108.08478044 -.00000092  00000+0  00000+0 0  9993
2 55970   0.0155 244.9048 0001331  94.7241 154.2460  1.00271850  7851
SES-19                  
1 55971U 23038B   25107.07874418  .00000098  00000+0  00000+0 0  9992
2 55971   0.0175 276.2030 0001881 119.4966  63.2114  1.00272897  7804
O3B MPOWER F4           
1 56367U 23059A   25107.60843619 -.00000018  00000+0  00000+0 0  9996
2 56367   0.0442 347.3939 0004261  31.5576 341.0657  5.00117270 37310
O3B MPOWER F3           
1 56368U 23059B   25107.47546748 -.00000018  00000+0  00000+0 0  9995
2 56368   0.0449 345.8097 0006281  38.5800 335.6415  5.00116621 33436
O3B MPOWER F5           
1 58346U 23175A   25107.54173331 -.00000018  00000+0  00000+0 0  9994
2 58346   0.0641 357.1110 0006819  14.6130 348.2934  5.00117141 28144
O3B MPOWER F6           
1 58347U 23175B   25107.64173990 -.00000018  00000+0  00000+0 0  9997
2 58347   0.0561 355.6531 0007567  34.3888 330.0029  5.00117498 27054
ASTRA 1P (SES-24)       
1 60086U 24115A   25107.25217095  .00000130  00000+0  00000+0 0  9991
2 60086   0.0798 316.5121 0004400  18.4752 340.6330  1.00272396  3057
